[{"OBJECT_NAME":"STARLINK-4523","OBJECT_ID":"2022-097B","EPOCH":"2026-03-09T10:49:35.599008","MEAN_MOTION":15.08836396,"ECCENTRICITY":0.00012859,"INCLINATION":53.2171,"RA_OF_ASC_NODE":125.1926,"ARG_OF_PERICENTER":92.2224,"MEAN_ANOMALY":267.8915,"EPHEMERIS_TYPE":0,"CLASSIFICATION_TYPE":"U","NORAD_CAT_ID":53389,"ELEMENT_SET_NO":999,"REV_AT_EPOCH":19863,"BSTAR":9.764219e-6,"MEAN_MOTION_DOT":-1.32e-6,"MEAN_MOTION_DDOT":0},{"OBJECT_NAME":"JILIN-01 KUANFU 02B 2","OBJECT_ID":"2024-169B","EPOCH":"2026-03-09T21:55:18.103008","MEAN_MOTION":15.09238424,"ECCENTRICITY":0.0011661,"INCLINATION":97.5565,"RA_OF_ASC_NODE":159.2927,"ARG_OF_PERICENTER":15.7533,"MEAN_ANOMALY":344.4056,"EPHEMERIS_TYPE":0,"CLASSIFICATION_TYPE":"U","NORAD_CAT_ID":61190,"ELEMENT_SET_NO":999,"REV_AT_EPOCH":8085,"BSTAR":0.0003793675,"MEAN_MOTION_DOT":5.983e-5,"MEAN_MOTION_DDOT":0}]
